BEIJING 1               
1 28890U 05043A   24360.16744376  .00001054  00000+0  21541-3 0  9997
2 28890  98.2213 121.9669 0015075 164.2563 195.9110 14.62851768 21819
HUANJING 1A (HJ-1A)     
1 33320U 08041A   24360.13358609  .00003978  00000+0  51042-3 0  9995
2 33320  97.6352 357.9615 0021313 105.5262 254.8307 14.81602494878610
HUANJING 1B (HJ-1B)     
1 33321U 08041B   24360.12636828  .00002483  00000+0  31962-3 0  9996
2 33321  97.6267   2.3667 0038322 149.3580 210.9883 14.81446470878635
YAOGAN-4                
1 33446U 08061A   24360.09459560  .00002379  00000+0  31194-3 0  9999
2 33446  97.8942 288.6371 0015665  30.6543 329.5582 14.81178438865806
DEIMOS-1                
1 35681U 09041A   24360.12665674  .00001632  00000+0  25488-3 0  9990
2 35681  97.6838 172.0110 0002525 110.1233 250.0248 14.74093804827438
UK-DMC 2                
1 35683U 09041C   24360.11368686  .00002512  00000+0  38565-3 0  9992
2 35683  97.8047 140.3655 0001209 101.7325 258.4020 14.74422821827134
DMC3-FM1                
1 40715U 15032A   24360.10649357  .00001833  00000+0  22334-3 0  9999
2 40715  97.7220 233.2051 0006613  38.2662 321.9021 14.84544849509895
DMC3-FM2                
1 40716U 15032B   24360.12884446  .00002034  00000+0  24712-3 0  9998
2 40716  97.7275 234.4252 0008528  40.1432 320.0412 14.84542196509893
DMC3-FM3                
1 40717U 15032C   24360.09796850  .00001953  00000+0  23810-3 0  9993
2 40717  97.7327 235.7628 0009881  36.6826 323.5064 14.84446667509890
